{
  "norad_id": 61869,
  "name": "2024-203A",
  "history": [
    {
      "epoch": "2026-03-28T21:52:02.425152",
      "apogee_km": 489.6124505239359,
      "perigee_km": 474.8630564264495,
      "latitude_deg": 44.74424299744861,
      "longitude_deg": 94.36936127999797,
      "semi_major_axis_km": 6860.374753475193,
      "eccentricity": 0.00107497,
      "inclination_deg": 97.4262,
      "raan_deg": 158.4179,
      "arg_perigee_deg": 246.0037,
      "mean_anomaly_deg": 114.0077,
      "mean_motion_rev_day": 15.27850997
    },
    {
      "epoch": "2026-03-29T04:09:16.884576",
      "apogee_km": 489.57801518712677,
      "perigee_km": 474.83102505547413,
      "latitude_deg": -84.95218970951265,
      "longitude_deg": 119.51876063994132,
      "semi_major_axis_km": 6860.3415201213,
      "eccentricity": 0.0010748,
      "inclination_deg": 97.4262,
      "raan_deg": 158.6789,
      "arg_perigee_deg": 244.9822,
      "mean_anomaly_deg": 115.0301,
      "mean_motion_rev_day": 15.27862099
    }
  ]
}